{
"type": "FeatureCollection",
"name": "Buffer2KM_1",
"crs": { "type": "name", "properties": { "name": "urn:ogc:def:crs:OGC:1.3:CRS84" } },
"features": [
{ "type": "Feature", "properties": { "Id": 0, "BUFF_DIST": 2000.0, "ORIG_FID": 0 }, "geometry": { "type": "MultiPolygon", "coordinates": [ [ [ [ 100.925981351557823, 13.295346692468232 ], [ 100.926349408235026, 13.29534030871962 ], [ 100.92671726158197, 13.295326735867677 ], [ 100.927084765214389, 13.29530597931803 ], [ 100.92745177288748, 13.295278047334987 ], [ 100.927818138554073, 13.295242951038228 ], [ 100.928183716422922, 13.295200704398368 ], [ 100.928548361016553, 13.295151324231398 ], [ 100.92891192722935, 13.295094830191976 ], [ 100.929274270385321, 13.295031244765593 ], [ 100.929635246295632, 13.294960593259608 ], [ 100.929994711316056, 13.29488290379318 ], [ 100.930352522404178, 13.294798207286044 ], [ 100.930708537176372, 13.294706537446213 ], [ 100.931062613964414, 13.294607930756527 ], [ 100.931414611871958, 13.29450242646014 ], [ 100.931764390830608, 13.294390066544876 ], [ 100.932111811655687, 13.294270895726509 ], [ 100.932456736101656, 13.294144961430939 ], [ 100.93279902691711, 13.294012313775335 ], [ 100.933138547899503, 13.293873005548136 ], [ 100.933475163949254, 13.293727092188043 ], [ 100.933808741123656, 13.293574631761947 ], [ 100.9341391466901, 13.293415684941799 ], [ 100.934466249178953, 13.293250314980428 ], [ 100.934789918435868, 13.293078587686383 ], [ 100.935110025673623, 13.292900571397704 ], [ 100.93542644352334, 13.292716336954724 ], [ 100.935739046085203, 13.292525957671836 ], [ 100.936047708978606, 13.292329509308336 ], [ 100.936352309391538, 13.292127070038216 ], [ 100.936652726129608, 13.291918720419066 ], [ 100.936948839664154, 13.291704543359977 ], [ 100.937240532179857, 13.291484624088556 ], [ 100.937527687621653, 13.291259050116954 ], [ 100.937810191740851, 13.291027911207067 ], [ 100.938087932140647, 13.290791299334757 ], [ 100.938360798320772, 13.290549308653254 ], [ 100.938628681721539, 13.290302035455676 ], [ 100.938891475766994, 13.29004957813668 ], [ 100.939149075907281, 13.289792037153292 ], [ 100.939401379660282, 13.289529514984919 ], [ 100.939648286652385, 13.289262116092551 ], [ 100.939889698658334, 13.28898994687718 ], [ 100.940125519640389, 13.28871311563743 ], [ 100.940355655786462, 13.288431732526465 ], [ 100.940580015547425, 13.288145909508122 ], [ 100.94079850967357, 13.287855760312359 ], [ 100.941011051249987, 13.287561400389977 ], [ 100.941217555731299, 13.287262946866671 ], [ 100.941417940975043, 13.286960518496384 ], [ 100.941612127274524, 13.286654235614089 ], [ 100.941800037390422, 13.286344220087855 ], [ 100.941981596581456, 13.286030595270349 ], [ 100.942156732634146, 13.28571348594974 ], [ 100.9423253758915, 13.285393018300049 ], [ 100.94248745928067, 13.285069319830917 ], [ 100.942642918339615, 13.28474251933687 ], [ 100.942791691242689, 13.284412746846041 ], [ 100.942933718825287, 13.284080133568462 ], [ 100.943068944607177, 13.283744811843805 ], [ 100.943197314815109, 13.283406915088738 ], [ 100.943318778404048, 13.283066577743844 ], [ 100.943433287077497, 13.282723935220094 ], [ 100.943540795306617, 13.282379123845001 ], [ 100.943641260348343, 13.282032280808327 ], [ 100.943734642262314, 13.281683544107524 ], [ 100.943820903926735, 13.281333052492831 ], [ 100.943900011053074, 13.28098094541204 ], [ 100.943971932199673, 13.280627362955023 ], [ 100.944036638784198, 13.280272445797994 ], [ 100.944094105094948, 13.279916335147535 ], [ 100.944144308301077, 13.27955917268442 ], [ 100.944187228461601, 13.279201100507244 ], [ 100.944222848533229, 13.27884226107588 ], [ 100.94425115437717, 13.278482797154805 ], [ 100.944272134764688, 13.278122851756315 ], [ 100.944285781381467, 13.27776256808362 ], [ 100.944292088830906, 13.277402089473874 ], [ 100.944291054636267, 13.27704155934115 ], [ 100.944282679241482, 13.276681121119395 ], [ 100.944266966011014, 13.27632091820538 ], [ 100.944243921228463, 13.275961093901634 ], [ 100.944213554094006, 13.275601791359453 ], [ 100.944175876720664, 13.275243153521973 ], [ 100.944130904129437, 13.27488532306727 ], [ 100.944078654243313, 13.274528442351647 ], [ 100.944019147880056, 13.274172653352998 ], [ 100.943952408743911, 13.273818097614317 ], [ 100.943878463416041, 13.273464916187422 ], [ 100.943797341344037, 13.273113249576845 ], [ 100.943709074830039, 13.272763237683948 ], [ 100.943613699017931, 13.272415019751273 ], [ 100.943511251879215, 13.272068734307176 ], [ 100.943401774197994, 13.271724519110723 ], [ 100.943285309554582, 13.27138251109689 ], [ 100.943161904308212, 13.27104284632213 ], [ 100.943031607578476, 13.270705659910242 ], [ 100.942894471225884, 13.270371085998635 ], [ 100.94275054983099, 13.270039257684989 ], [ 100.94259990067286, 13.269710306974321 ], [ 100.942442583706125, 13.269384364726491 ], [ 100.942278661537088, 13.269061560604156 ], [ 100.942108199398874, 13.268742023021215 ], [ 100.941931265125419, 13.268425879091737 ], [ 100.941747929124418, 13.268113254579417 ], [ 100.941558264349297, 13.267804273847558 ], [ 100.941362346270225, 13.267499059809628 ], [ 100.941160252844071, 13.267197733880376 ], [ 100.940952064483255, 13.266900415927555 ], [ 100.940737864023902, 13.266607224224252 ], [ 100.940517736692755, 13.266318275401874 ], [ 100.940291770073287, 13.266033684403752 ], [ 100.940060054070912, 13.265753564439445 ], [ 100.939822680877114, 13.265478026939725 ], [ 100.939579744932828, 13.265207181512277 ], [ 100.939331342890853, 13.264941135898097 ], [ 100.939077573577379, 13.264679995928672 ], [ 100.938818537952656, 13.264423865483886 ], [ 100.938554339070933, 13.264172846450732 ], [ 100.938285082039329, 13.26392703868278 ], [ 100.938010873976097, 13.263686539960492 ], [ 100.937731823968036, 13.263451445952331 ], [ 100.937448043027061, 13.263221850176732 ], [ 100.937159644046034, 13.262997843964918 ], [ 100.936866741753946, 13.262779516424578 ], [ 100.936569452670199, 13.262566954404443 ], [ 100.936267895058336, 13.26236024245976 ], [ 100.935962188878975, 13.262159462818667 ], [ 100.935652455742158, 13.261964695349501 ], [ 100.935338818858867, 13.261776017529032 ], [ 100.935021402992234, 13.261593504411675 ], [ 100.934700334407722, 13.26141722859964 ], [ 100.934375740823086, 13.261247260214063 ], [ 100.934047751357468, 13.261083666867126 ], [ 100.933716496480187, 13.260926513635178 ], [ 100.933382107958764, 13.260775863032862 ], [ 100.933044718806528, 13.260631774988237 ], [ 100.932704463229868, 13.260494306818988 ], [ 100.932361476574698, 13.260363513209594 ], [ 100.932015895272841, 13.260239446189617 ], [ 100.931667856787584, 13.26012215511299 ], [ 100.931317499559228, 13.260011686638403 ], [ 100.930964962949929, 13.25990808471076 ], [ 100.930610387188324, 13.259811390543668 ], [ 100.93025391331382, 13.259721642603088 ], [ 100.929895683120506, 13.259638876592025 ], [ 100.929535839100808, 13.259563125436303 ], [ 100.929174524388756, 13.259494419271514 ], [ 100.928811882703258, 13.259432785431006 ], [ 100.928448058290812, 13.259378248435004 ], [ 100.928083195868254, 13.259330829980884 ], [ 100.927717440565175, 13.259290548934503 ], [ 100.927350937866322, 13.259257421322737 ], [ 100.926983833553663, 13.259231460327063 ], [ 100.92661627364852, 13.259212676278345 ], [ 100.926248404353473, 13.25920107665269 ], [ 100.925880371994282, 13.259196666068497 ], [ 100.92551232296168, 13.259199446284594 ], [ 100.925144403653249, 13.259209416199541 ], [ 100.924776760415142, 13.259226571852054 ], [ 100.924409539483989, 13.259250906422595 ], [ 100.924042886928717, 13.259282410236036 ], [ 100.923676948592501, 13.259321070765528 ], [ 100.92331187003478, 13.259366872637479 ], [ 100.922947796473423, 13.259419797637625 ], [ 100.922584872726958, 13.259479824718298 ], [ 100.922223243157049, 13.259546930006763 ], [ 100.921863051611069, 13.259621086814718 ], [ 100.921504441364931, 13.259702265648883 ], [ 100.921147555066113, 13.259790434222721 ], [ 100.92079253467702, 13.259885557469273 ], [ 100.92043952141843, 13.259987597555087 ], [ 100.920088655713414, 13.260096513895242 ], [ 100.91974007713155, 13.260212263169498 ], [ 100.919393924333349, 13.260334799339489 ], [ 100.919050335015129, 13.260464073667039 ], [ 100.91870944585439, 13.260600034733505 ], [ 100.918371392455271, 13.260742628460234 ], [ 100.91803630929482, 13.260891798130057 ], [ 100.917704329669405, 13.261047484409811 ], [ 100.91737558564175, 13.261209625373954 ], [ 100.91705020798841, 13.261378156529137 ], [ 100.916728326147819, 13.261553010839883 ], [ 100.916410068168659, 13.261734118755196 ], [ 100.916095560659187, 13.261921408236235 ], [ 100.915784928736613, 13.262114804784922 ], [ 100.91547829597755, 13.262314231473592 ], [ 100.91517578436877, 13.262519608975539 ], [ 100.914877514258635, 13.262730855596578 ], [ 100.914583604309371, 13.262947887307494 ], [ 100.914294171449754, 13.263170617777476 ], [ 100.914009330828577, 13.263398958408429 ], [ 100.91372919576898, 13.26363281837018 ], [ 100.9134538777232, 13.263872104636611 ], [ 100.913183486228377, 13.264116722022642 ], [ 100.912918128862856, 13.264366573222064 ], [ 100.912657911203468, 13.264621558846233 ], [ 100.912402936783465, 13.264881577463594 ], [ 100.912153307051355, 13.265146525639997 ], [ 100.91190912133051, 13.265416297979844 ], [ 100.911670476779676, 13.265690787167973 ], [ 100.911437468354237, 13.265969884012353 ], [ 100.911210188768493, 13.266253477487487 ], [ 100.91098872845869, 13.266541454778567 ], [ 100.910773175547121, 13.266833701326332 ], [ 100.910563615806893, 13.267130100872638 ], [ 100.910360132627943, 13.267430535506673 ], [ 100.910162806983706, 13.26773488571185 ], [ 100.909971717398946, 13.268043030413349 ], [ 100.90978693991849, 13.26835484702625 ], [ 100.909608548076847, 13.268670211504308 ], [ 100.909436612869072, 13.268988998389268 ], [ 100.909271202722366, 13.269311080860765 ], [ 100.909112383468837, 13.269636330786774 ], [ 100.908960218319365, 13.269964618774553 ], [ 100.908814767838251, 13.270295814222132 ], [ 100.908676089919268, 13.270629785370234 ], [ 100.908544239762421, 13.270966399354712 ], [ 100.908419269852047, 13.271305522259365 ], [ 100.90830122993583, 13.271647019169231 ], [ 100.90819016700506, 13.271990754224234 ], [ 100.908086125275759, 13.272336590673243 ], [ 100.907989146171147, 13.272684390928465 ], [ 100.907899268305059, 13.273034016620171 ], [ 100.907816527466565, 13.273385328651745 ], [ 100.907740956605664, 13.273738187255022 ], [ 100.907672585820137, 13.274092452045892 ], [ 100.907611442343494, 13.274447982080128 ], [ 100.907557550534136, 13.274804635909495 ], [ 100.907510931865602, 13.275162271637988 ], [ 100.907471604917902, 13.275520746978316 ], [ 100.907439585370199, 13.275879919308476 ], [ 100.907414885994399, 13.276239645728547 ], [ 100.907397516650093, 13.276599783117497 ], [ 100.907387484280548, 13.276960188190147 ], [ 100.907384792909923, 13.277320717554202 ], [ 100.907389443641563, 13.277681227767269 ], [ 100.907401434657572, 13.278041575393965 ], [ 100.907420761219456, 13.278401617062972 ], [ 100.907447415669893, 13.278761209524086 ], [ 100.907481387435865, 13.279120209705226 ], [ 100.907522663032722, 13.279478474769379 ], [ 100.907571226069479, 13.279835862171405 ], [ 100.907627057255354, 13.280192229714801 ], [ 100.90769013440736, 13.280547435608259 ], [ 100.907760432459099, 13.280901338522101 ], [ 100.907837923470638, 13.281253797644535 ], [ 100.907922576639677, 13.28160467273767 ], [ 100.90801435831365, 13.281953824193343 ], [ 100.90811323200316, 13.28230111308868 ], [ 100.908219158396392, 13.282646401241378 ], [ 100.908332095374732, 13.282989551264702 ], [ 100.908451998029534, 13.283330426622177 ], [ 100.908578818679857, 13.283668891681904 ], [ 100.908712506891462, 13.284004811770568 ], [ 100.908853009496852, 13.284338053227019 ], [ 100.909000270616303, 13.284668483455496 ], [ 100.909154231680219, 13.284995970978382 ], [ 100.909314831452221, 13.285320385488536 ], [ 100.909482006053651, 13.285641597901185 ], [ 100.909655688988821, 13.285959480405271 ], [ 100.909835811171561, 13.286273906514344 ], [ 100.910022300952562, 13.286584751116914 ], [ 100.910215084148007, 13.286891890526238 ], [ 100.91041408406889, 13.287195202529574 ], [ 100.910619221551698, 13.287494566436802 ], [ 100.910830414989746, 13.287789863128486 ], [ 100.91104758036569, 13.28808097510329 ], [ 100.911270631284907, 13.288367786524752 ], [ 100.911499479009962, 13.288650183267393 ], [ 100.911734032495787, 13.288928052962147 ], [ 100.911974198425924, 13.289201285041095 ], [ 100.912219881249698, 13.289469770781484 ], [ 100.912470983220189, 13.289733403349008 ], [ 100.912727404433141, 13.289992077840333 ], [ 100.912989042866712, 13.290245691324854 ], [ 100.913255794422028, 13.290494142885699 ], [ 100.913527552964695, 13.29073733365987 ], [ 100.913804210366933, 13.290975166877621 ], [ 100.914085656550711, 13.291207547900967 ], [ 100.914371779531436, 13.291434384261382 ], [ 100.914662465462627, 13.291655585696603 ], [ 100.914957598681184, 13.291871064186539 ], [ 100.915257061753422, 13.292080733988357 ], [ 100.915560735521822, 13.292284511670585 ], [ 100.915868499152452, 13.292482316146332 ], [ 100.916180230183102, 13.29267406870559 ], [ 100.916495804571966, 13.292859693046529 ], [ 100.916815096747086, 13.293039115305923 ], [ 100.917137979656317, 13.293212264088515 ], [ 100.9174643248179, 13.293379070495462 ], [ 100.917794002371622, 13.293539468151753 ], [ 100.918126881130533, 13.293693393232642 ], [ 100.918462828633125, 13.293840784489051 ], [ 100.918801711196153, 13.293981583271956 ], [ 100.919143393967758, 13.294115733555726 ], [ 100.919487740981253, 13.294243181960448 ], [ 100.91983461520924, 13.294363877773149 ], [ 100.92018387861809, 13.294477772967994 ], [ 100.92053539222303, 13.294584822225428 ], [ 100.920889016143406, 13.294684982950171 ], [ 100.921244609658373, 13.294778215288213 ], [ 100.921602031262978, 13.294864482142646 ], [ 100.921961138724498, 13.294943749188459 ], [ 100.922321789139048, 13.295015984886179 ], [ 100.922683838988505, 13.295081160494426 ], [ 100.923047144197625, 13.295139250081364 ], [ 100.923411560191511, 13.295190230535006 ], [ 100.923776941953065, 13.295234081572417 ], [ 100.924143144080787, 13.295270785747784 ], [ 100.924510020846725, 13.295300328459357 ], [ 100.924877426254398, 13.295322697955253 ], [ 100.925245214097018, 13.295337885338126 ], [ 100.925613238015742, 13.295345884568716 ], [ 100.925981351557823, 13.295346692468232 ] ] ] ] } }
]
}
