{
  "type": "FeatureCollection",
  "name": "mala_changkeed_nlp",
  "features": [
    {
      "type": "Feature",
      "geometry": {
        "type": "Point",
        "coordinates": [
          100.923462,
          13.27431275
        ]
      },
      "properties": {
        "id": 1,
        "ชื่อร้าน": "Mr.Bao MALATANG",
        "ประเภท": "ชั่งขีด",
        "ราคาเริ่มต้น": "29 - 38(ต่อขีด)",
        "ที่จอดรถ": "รถจักรยานยนต์",
        "ขนาดของร้าน": "กลาง (10 - 20 โต๊ะ)",
        "ประเภทของร้าน": "ติดแอร์ทั้งหมด",
        "เวลาเปิด": "11:00 น.",
        "เวลาปิด": "22:00 น.",
        "จำนวนรีวิว": 964,
        "ความคิดเห็นบวก_pct": 94.7,
        "ความคิดเห็นกลาง_pct": 5.1,
        "ความคิดเห็นลบ_pct": 0.2,
        "คำที่พูดถึงบ่อย": "อร่อย, ดี, สะอาด, อาหาร, บริการ, พนักงาน"
      }
    },
    {
      "type": "Feature",
      "geometry": {
        "type": "Point",
        "coordinates": [
          100.9237173,
          13.27362129
        ]
      },
      "properties": {
        "id": 2,
        "ชื่อร้าน": "Dragon Shabu Mala",
        "ประเภท": "ชั่งขีด",
        "ราคาเริ่มต้น": "29 - 38(ต่อขีด)",
        "ที่จอดรถ": "รถจักรยานยนต์",
        "ขนาดของร้าน": "ใหญ่ ( 20 โต๊ะขึ้นไป )",
        "ประเภทของร้าน": "ติดแอร์ทั้งหมด",
        "เวลาเปิด": "11:00 น.",
        "เวลาปิด": "23:00 น.",
        "จำนวนรีวิว": 158,
        "ความคิดเห็นบวก_pct": 80.4,
        "ความคิดเห็นกลาง_pct": 17.1,
        "ความคิดเห็นลบ_pct": 2.5,
        "คำที่พูดถึงบ่อย": "อร่อย, ซุป, อาหาร, ดี, พนักงาน, หมาล่า"
      }
    },
    {
      "type": "Feature",
      "geometry": {
        "type": "Point",
        "coordinates": [
          100.9241036,
          13.27219584
        ]
      },
      "properties": {
        "id": 3,
        "ชื่อร้าน": "เบสท์ซุป หม่าล่า",
        "ประเภท": "ชั่งขีด",
        "ราคาเริ่มต้น": "29 - 38(ต่อขีด)",
        "ที่จอดรถ": "จอดได้ทั้งรถยนต์และรถจักรยานยนต์",
        "ขนาดของร้าน": "ใหญ่ ( 20 โต๊ะขึ้นไป )",
        "ประเภทของร้าน": "มีทั้งโซนแอร์และพัดลม",
        "เวลาเปิด": "11:00 น.",
        "เวลาปิด": "1:00 น.",
        "จำนวนรีวิว": 142,
        "ความคิดเห็นบวก_pct": 73.2,
        "ความคิดเห็นกลาง_pct": 22.5,
        "ความคิดเห็นลบ_pct": 4.2,
        "คำที่พูดถึงบ่อย": "อร่อย, อาหาร, ซุป, หมาล่า, ร้านอาหาร, ดี"
      }
    },
    {
      "type": "Feature",
      "geometry": {
        "type": "Point",
        "coordinates": [
          100.9247396,
          13.26998407
        ]
      },
      "properties": {
        "id": 4,
        "ชื่อร้าน": "Yo-i soup bangsaen",
        "ประเภท": "ชั่งขีด",
        "ราคาเริ่มต้น": "29 - 38(ต่อขีด)",
        "ที่จอดรถ": "จอดได้ทั้งรถยนต์และรถจักรยานยนต์",
        "ขนาดของร้าน": "ใหญ่ ( 20 โต๊ะขึ้นไป )",
        "ประเภทของร้าน": "มีทั้งโซนแอร์และพัดลม",
        "เวลาเปิด": "11:00 น.",
        "เวลาปิด": "1:00 น.",
        "จำนวนรีวิว": null,
        "ความคิดเห็นบวก_pct": null,
        "ความคิดเห็นกลาง_pct": null,
        "ความคิดเห็นลบ_pct": null,
        "คำที่พูดถึงบ่อย": null
      }
    },
    {
      "type": "Feature",
      "geometry": {
        "type": "Point",
        "coordinates": [
          100.9188784,
          13.28145705
        ]
      },
      "properties": {
        "id": 5,
        "ชื่อร้าน": "ทงทงหมาล่า",
        "ประเภท": "ชั่งขีด",
        "ราคาเริ่มต้น": "29 - 38(ต่อขีด)",
        "ที่จอดรถ": "จอดได้ทั้งรถยนต์และรถจักรยานยนต์",
        "ขนาดของร้าน": "กลาง (10 - 20 โต๊ะ)",
        "ประเภทของร้าน": "ติดแอร์ทั้งหมด",
        "เวลาเปิด": "11:00 น.",
        "เวลาปิด": "22:00 น.",
        "จำนวนรีวิว": 75,
        "ความคิดเห็นบวก_pct": 73.3,
        "ความคิดเห็นกลาง_pct": 25.3,
        "ความคิดเห็นลบ_pct": 1.3,
        "คำที่พูดถึงบ่อย": "ซุป, อร่อย, หมาล่า, ดี, อาหาร, ร้านอาหาร"
      }
    },
    {
      "type": "Feature",
      "geometry": {
        "type": "Point",
        "coordinates": [
          100.9260049,
          13.2703131
        ]
      },
      "properties": {
        "id": 6,
        "ชื่อร้าน": "Super Soup MaLaTang",
        "ประเภท": "ชั่งขีด",
        "ราคาเริ่มต้น": "29 - 38(ต่อขีด)",
        "ที่จอดรถ": "จอดได้ทั้งรถยนต์และรถจักรยานยนต์",
        "ขนาดของร้าน": "กลาง (10 - 20 โต๊ะ)",
        "ประเภทของร้าน": "ติดแอร์ทั้งหมด",
        "เวลาเปิด": "11:00 น.",
        "เวลาปิด": "22:00 น.",
        "จำนวนรีวิว": 131,
        "ความคิดเห็นบวก_pct": 75.6,
        "ความคิดเห็นกลาง_pct": 23.7,
        "ความคิดเห็นลบ_pct": 0.8,
        "คำที่พูดถึงบ่อย": "อร่อย, ซุป, เลือกได้, ดี, หมาล่า, อาหาร"
      }
    },
    {
      "type": "Feature",
      "geometry": {
        "type": "Point",
        "coordinates": [
          100.9247726,
          13.2886608
        ]
      },
      "properties": {
        "id": 7,
        "ชื่อร้าน": "ล่าดิ หม่าล่าทั่ง สาขาบางแสน",
        "ประเภท": "ชั่งขีด",
        "ราคาเริ่มต้น": "29 - 38(ต่อขีด)",
        "ที่จอดรถ": "รถจักรยานยนต์",
        "ขนาดของร้าน": "กลาง (10 - 20 โต๊ะ)",
        "ประเภทของร้าน": "ติดแอร์ทั้งหมด",
        "เวลาเปิด": "11:00 น.",
        "เวลาปิด": "22:00 น.",
        "จำนวนรีวิว": 71,
        "ความคิดเห็นบวก_pct": 94.4,
        "ความคิดเห็นกลาง_pct": 5.6,
        "ความคิดเห็นลบ_pct": 0.0,
        "คำที่พูดถึงบ่อย": "อร่อย, ดี, สะอาด, ซุป, พนักงาน, บริการ"
      }
    },
    {
      "type": "Feature",
      "geometry": {
        "type": "Point",
        "coordinates": [
          100.9289106,
          13.28387825
        ]
      },
      "properties": {
        "id": 8,
        "ชื่อร้าน": "อี้จัน สุกี้หม่าล่า",
        "ประเภท": "ชั่งขีด",
        "ราคาเริ่มต้น": "29 - 38(ต่อขีด)",
        "ที่จอดรถ": "รถจักรยานยนต์",
        "ขนาดของร้าน": "กลาง (10 - 20 โต๊ะ)",
        "ประเภทของร้าน": "ติดแอร์ทั้งหมด",
        "เวลาเปิด": "11:00 น.",
        "เวลาปิด": "23:00 น.",
        "จำนวนรีวิว": 7,
        "ความคิดเห็นบวก_pct": 42.9,
        "ความคิดเห็นกลาง_pct": 57.1,
        "ความคิดเห็นลบ_pct": 0.0,
        "คำที่พูดถึงบ่อย": "loved, คุณภาพ, selection, offer, will, return"
      }
    },
    {
      "type": "Feature",
      "geometry": {
        "type": "Point",
        "coordinates": [
          100.9314978,
          13.28679668
        ]
      },
      "properties": {
        "id": 9,
        "ชื่อร้าน": "Tawan Malatang Soup",
        "ประเภท": "ชั่งขีด",
        "ราคาเริ่มต้น": "29 - 38(ต่อขีด)",
        "ที่จอดรถ": "รถจักรยานยนต์",
        "ขนาดของร้าน": "กลาง (10 - 20 โต๊ะ)",
        "ประเภทของร้าน": "ติดแอร์ทั้งหมด",
        "เวลาเปิด": "12:00 น.",
        "เวลาปิด": "22:00 น.",
        "จำนวนรีวิว": 19,
        "ความคิดเห็นบวก_pct": 73.7,
        "ความคิดเห็นกลาง_pct": 26.3,
        "ความคิดเห็นลบ_pct": 0.0,
        "คำที่พูดถึงบ่อย": "อร่อย, ร้าน, หมาล่า, เผ็ด, ซุป, too"
      }
    }
  ]
}