{
  "type": "FeatureCollection",
  "name": "mala_sieabmai_nlp",
  "features": [
    {
      "type": "Feature",
      "geometry": {
        "type": "Point",
        "coordinates": [
          100.9303218,
          13.27635278
        ]
      },
      "properties": {
        "id": 10,
        "ชื่อร้าน": "หม่าล่าสายแดรกบางแสน",
        "ประเภท": "เสียบไม้",
        "ราคาเริ่มต้น": "10 - 20 บาท/ไม้",
        "ที่จอดรถ": "รถจักรยานยนต์",
        "ประเภทการขาย": "นั่งกินที่ร้าน และ สั่งกลับบ้าน",
        "โต๊ะนั่ง": "มี",
        "เวลาเปิด": "16:30",
        "เวลาปิด": "23:00",
        "จำนวนรีวิว": 4,
        "ความคิดเห็นบวก_pct": 100.0,
        "ความคิดเห็นกลาง_pct": 0.0,
        "ความคิดเห็นลบ_pct": 0.0,
        "คำที่พูดถึงบ่อย": "อร่อย, other, places, eaten, one"
      }
    },
    {
      "type": "Feature",
      "geometry": {
        "type": "Point",
        "coordinates": [
          100.9273014,
          13.28798448
        ]
      },
      "properties": {
        "id": 11,
        "ชื่อร้าน": "สถานี.หม่าล่า",
        "ประเภท": "เสียบไม้",
        "ราคาเริ่มต้น": "10 - 20 บาท/ไม้",
        "ที่จอดรถ": "จอดได้ทั้งรถยนต์และรถจักรยานยนต์",
        "ประเภทการขาย": "นั่งกินที่ร้าน และ สั่งกลับบ้าน",
        "โต๊ะนั่ง": "มี",
        "เวลาเปิด": "17:00",
        "เวลาปิด": "23:00",
        "จำนวนรีวิว": 1,
        "ความคิดเห็นบวก_pct": 100.0,
        "ความคิดเห็นกลาง_pct": 0.0,
        "ความคิดเห็นลบ_pct": 0.0,
        "คำที่พูดถึงบ่อย": "plum, อร่อย, medium, เผ็ด, buy"
      }
    },
    {
      "type": "Feature",
      "geometry": {
        "type": "Point",
        "coordinates": [
          100.9293549,
          13.28232548
        ]
      },
      "properties": {
        "id": 12,
        "ชื่อร้าน": "ชินชา หม่าล่า บางแสน",
        "ประเภท": "เสียบไม้",
        "ราคาเริ่มต้น": "10 - 20 บาท/ไม้",
        "ที่จอดรถ": "รถจักรยานยนต์",
        "ประเภทการขาย": "นั่งกินที่ร้าน และ สั่งกลับบ้าน",
        "โต๊ะนั่ง": "มี",
        "เวลาเปิด": "16:00",
        "เวลาปิด": "1:00",
        "จำนวนรีวิว": 2,
        "ความคิดเห็นบวก_pct": 50.0,
        "ความคิดเห็นกลาง_pct": 50.0,
        "ความคิดเห็นลบ_pct": 0.0,
        "คำที่พูดถึงบ่อย": "หมาล่า, restaurant, เผ็ด, another, intense"
      }
    }
  ]
}